1 44929U 20001R   22365.50102958  .00000592  00000-0  58601-4 0  9999
2 44929  53.0539 172.8702 0001187  86.6241 273.4884 15.06400523164379
1 44929U 20001R   22365.50102958  .00000592  00000-0  58601-4 0  9999
2 44929  53.0539 172.8702 0001187  86.6241 273.4884 15.06400523164379
1 44929U 20001R   22365.76642294 -.00000438  00000-0 -10549-4 0  9999
2 44929  53.0540 171.6788 0001167  86.2843 273.8279 15.06393288164410
1 44929U 20001R   22365.76642294 -.00000438  00000-0 -10549-4 0  9999
2 44929  53.0540 171.6788 0001167  86.2843 273.8279 15.06393288164410
1 44929U 20001R   23001.49623474 -.00000801  00000-0 -34881-4 0  9995
2 44929  53.0543 168.4022 0001164  84.1651 275.9470 15.06399395164522
1 44929U 20001R   23001.69527318 -.00000549  00000-0 -17940-4 0  9993
2 44929  53.0544 167.5088 0001175  84.8075 275.3048 15.06401339164554
1 44929U 20001R   23001.76161900 -.00000441  00000-0 -10703-4 0  9993
2 44929  53.0544 167.2109 0001177  84.5576 275.5547 15.06402251164561
1 44929U 20001R   23002.49142835  .00002195  00000-0  16622-3 0  9991
2 44929  53.0547 163.9348 0001183  85.8001 274.3123 15.06400002164677
1 44929U 20001R   23002.82315878  .00002467  00000-0  18446-3 0  9995
2 44929  53.0545 162.4454 0001190  84.4340 275.6785 15.06403873164729
1 44929U 20001R   23002.82315878  .00002467  00000-0  18446-3 0  9995
2 44929  53.0545 162.4454 0001190  84.4340 275.6785 15.06403873164729
1 44929U 20001R   23003.42028288  .00001266  00000-0  10388-3 0  9991
2 44929  53.0550 159.7651 0001218  85.2661 274.8467 15.06402502164815
1 44929U 20001R   23003.42028288  .00001266  00000-0  10388-3 0  9991
2 44929  53.0550 159.7651 0001218  85.2661 274.8467 15.06402502164815
1 44929U 20001R   23003.81836090  .00000872  00000-0  77418-4 0  9992
2 44929  53.0546 157.9776 0001211  83.3342 276.7784 15.06404918164878
1 44929U 20001R   23004.81355629  .00000229  00000-0  34252-4 0  9992
2 44929  53.0546 153.5101 0001324  81.2333 278.8805 15.06410594165026
1 44929U 20001R   23004.81355629  .00000229  00000-0  34252-4 0  9992
2 44929  53.0546 153.5101 0001324  81.2333 278.8805 15.06410594165026
1 44929U 20001R   23005.54336832  .00000555  00000-0  56116-4 0  9993
2 44929  53.0541 150.2343 0001321  78.5496 281.5641 15.06406136165137
1 44929U 20001R   23005.67606383  .00000113  00000-0  26465-4 0  9992
2 44929  53.0543 149.6384 0001376  81.6140 278.5005 15.06403569165156
1 44929U 20001R   23005.67606383  .00000113  00000-0  26465-4 0  9992
2 44929  53.0543 149.6384 0001376  81.6140 278.5005 15.06403569165156
1 44929U 20001R   23006.40588943 -.00001302  00000-0 -68551-4 0  9990
2 44929  53.0546 146.3625 0001322  79.7286 280.3852 15.06393073165262
1 44929U 20001R   23006.40588943 -.00001302  00000-0 -68551-4 0  9990
2 44929  53.0546 146.3625 0001322  79.7286 280.3852 15.06393073165262
1 44929U 20001R   23007.06935106 -.00000485  00000-0 -13675-4 0  9998
2 44929  53.0545 143.3843 0001319  78.2412 281.8725 15.06401380165368
1 44929U 20001R   23007.06935106 -.00000485  00000-0 -13675-4 0  9998
2 44929  53.0545 143.3843 0001319  78.2412 281.8725 15.06401380165368
1 44929U 20001R   23007.79917600 -.00000985  00000-0 -47222-4 0  9997
2 44929  53.0556 140.1097 0001349  66.9043 293.2089 15.06391393165477
1 44929U 20001R   23007.79917600 -.00000985  00000-0 -47222-4 0  9997
2 44929  53.0556 140.1097 0001349  66.9043 293.2089 15.06391393165477
1 44929U 20001R   23008.39629941  .00000850  00000-0  75937-4 0  9995
2 44929  53.0561 137.4297 0001260  84.8690 275.2443 15.06388256165561
1 44929U 20001R   23009.05976617  .00000503  00000-0  52676-4 0  9994
2 44929  53.0556 134.4497 0001319  71.1657 288.9474 15.06396794165663
1 44929U 20001R   23009.59054460  .00000713  00000-0  66783-4 0  9993
2 44929  53.0553 132.0662 0001346  73.0031 287.1105 15.06393562165746
1 44929U 20001R   23009.72324177  .00001782  00000-0  13855-3 0  9991
2 44929  53.0550 131.4710 0001290  68.5930 291.5196 15.06386215165763
1 44929U 20001R   23009.72324177  .00001782  00000-0  13855-3 0  9991
2 44929  53.0550 131.4710 0001290  68.5930 291.5196 15.06386215165763
1 44929U 20001R   23010.58574972  .00000566  00000-0  56915-4 0  9991
2 44929  53.0544 127.5987 0001319  71.9979 288.1154 15.06395704165894
1 44929U 20001R   23010.58574972  .00000566  00000-0  56915-4 0  9991
2 44929  53.0544 127.5987 0001319  71.9979 288.1154 15.06395704165894
1 44929U 20001R   23011.58093986  .00001498  00000-0  11940-3 0  9996
2 44929  53.0541 123.1306 0001512  68.6223 291.4927 15.06406559166042
1 44929U 20001R   23011.58093986  .00001498  00000-0  11940-3 0  9996
2 44929  53.0541 123.1306 0001512  68.6223 291.4927 15.06406559166042
1 44929U 20001R   23012.70881099  .00003312  00000-0  24096-3 0  9994
2 44929  53.0541 118.0680 0001626  63.0039 297.1116 15.06432668166212
1 44929U 20001R   23012.70881099  .00003312  00000-0  24096-3 0  9994
2 44929  53.0541 118.0680 0001626  63.0039 297.1116 15.06432668166212
1 44929U 20001R   23012.97422956 -.00000906  00000-0 -41924-4 0  9994
2 44929  53.0551 116.8729 0002148  75.2180 284.9046 15.06390987166252
1 44929U 20001R   23013.57136018 -.00001640  00000-0 -91284-4 0  9992
2 44929  53.0546 114.1963 0001436  72.2963 287.8183 15.06383671166348
1 44929U 20001R   23013.57136018 -.00001640  00000-0 -91284-4 0  9992
2 44929  53.0546 114.1963 0001436  72.2963 287.8183 15.06383671166348
1 44929U 20001R   23014.30119506 -.00011089  00000-0 -72759-3 0  9990
2 44929  53.0532 110.9202 0001648  71.9769 288.1399 15.06355615166450
1 44929U 20001R   23014.96466514 -.00000142  00000-0  93683-5 0  9994
2 44929  53.0543 107.9419 0001256  70.3330 289.7794 15.06383401166551
1 44929U 20001R   23015.23005091  .00011486  00000-0  78873-3 0  9998
2 44929  53.0531 106.7529 0001500  74.0897 286.0257 15.06399169166594
1 44929U 20001R   23015.56177326  .00012520  00000-0  85746-3 0  9992
2 44929  53.0545 105.2604 0001324  85.4621 274.6519 15.06419134166647
1 44929U 20001R   23015.56177326  .00012520  00000-0  85746-3 0  9992
2 44929  53.0545 105.2604 0001324  85.4621 274.6519 15.06419134166647
1 44929U 20001R   23016.22525976  .00005992  00000-0  42093-3 0  9997
2 44929  53.0550 102.2844 0001395  80.2757 279.8390 15.06388236166740
1 44929U 20001R   23016.49064110  .00007672  00000-0  53334-3 0  9991
2 44929  53.0548 101.0919 0001447  89.9848 270.1307 15.06400831166784
1 44929U 20001R   23016.49064110  .00007672  00000-0  53334-3 0  9991
2 44929  53.0548 101.0919 0001447  89.9848 270.1307 15.06400831166784
1 44929U 20001R   23016.62332949  .00005365  00000-0  37872-3 0  9990
2 44929  53.0541 100.4953 0001401  85.7972 274.3177 15.06408476166807
1 44929U 20001R   23016.95506736 -.00001245  00000-0 -64722-4 0  9993
2 44929  53.0547  99.0073 0001160  87.8024 272.3098 15.06396430166853
1 44929U 20001R   23017.48584491 -.00004507  00000-0 -28390-3 0  9990
2 44929  53.0543  96.6255 0001762  88.8983 271.2208 15.06395444166931
1 44929U 20001R   23017.61853886 -.00004779  00000-0 -30216-3 0  9993
2 44929  53.0536  96.0292 0001590  86.7839 273.3332 15.06395138166957
1 44929U 20001R   23018.34835221  .00006338  00000-0  44394-3 0  9990
2 44929  53.0534  92.7536 0001520  94.1370 265.9793 15.06406409167060
1 44929U 20001R   23018.41469772  .00008011  00000-0  55592-3 0  9994
2 44929  53.0541  92.4558 0001528 101.0495 259.0666 15.06410900167078
1 44929U 20001R   23019.47624217  .00005948  00000-0  41771-3 0  9998
2 44929  53.0540  87.6903 0001466  93.7001 266.4155 15.06415058167230
1 44929U 20001R   23019.60892865  .00010640  00000-0  73151-3 0  9991
2 44929  53.0537  87.0923 0001206  89.9034 270.2093 15.06429382167258
1 44929U 20001R   23019.60892865  .00010640  00000-0  73151-3 0  9991
2 44929  53.0537  87.0923 0001206  89.9034 270.2093 15.06429382167258
1 44929U 20001R   23020.47144689  .00009822  00000-0  67736-3 0  9994
2 44929  53.0542  83.2220 0001272  98.5304 261.5829 15.06399930167380
1 44929U 20001R   23020.47144689  .00009822  00000-0  67736-3 0  9994
2 44929  53.0542  83.2220 0001272  98.5304 261.5829 15.06399930167380
1 44929U 20001R   23020.86953703 -.00001357  00000-0 -72282-4 0  9992
2 44929  53.0536  81.4343 0001382  93.6756 266.4391 15.06380482167445
1 44929U 20001R   23021.20127190  .00002598  00000-0  19321-3 0  9994
2 44929  53.0535  79.9451 0001424  98.4313 261.6837 15.06399866167498
1 44929U 20001R   23021.46666040  .00033736  00000-0  22721-2 0  9999
2 44929  53.0531  78.7533 0001453  92.4386 267.6770 15.06413577167531
1 44929U 20001R   23022.13012575  .00023013  00000-0  15579-2 0  9992
2 44929  53.0534  75.7753 0001482 105.7191 254.3961 15.06421005167630
1 44929U 20001R   23022.46185669  .00008756  00000-0  60573-3 0  9995
2 44929  53.0529  74.2860 0001431  94.9564 265.1588 15.06416099167681
1 44929U 20001R   23023.12533020  .00000514  00000-0  53379-4 0  9998
2 44929  53.0525  71.3075 0001674  80.5227 279.5951 15.06398000167784
1 44929U 20001R   23024.25322758  .00004292  00000-0  30683-3 0  9996
2 44929  53.0525  66.2428 0001505  79.8577 280.2582 15.06402805167958
1 44929U 20001R   23025.11573898  .00003647  00000-0  26357-3 0  9991
2 44929  53.0521  62.3705 0001401  83.3034 276.8114 15.06400066168086
1 44929U 20001R   23025.38112554  .00003566  00000-0  25818-3 0  9999
2 44929  53.0524  61.1792 0001373  81.0273 279.0872 15.06401960168125
1 44929U 20001R   23025.77920674  .00002863  00000-0  21104-3 0  9995
2 44929  53.0530  59.3923 0001417  83.1532 276.9618 15.06401433168182
1 44929U 20001R   23026.37632468  .00003895  00000-0  28016-3 0  9998
2 44929  53.0538  56.7121 0001491  87.9557 272.1603 15.06408696168272
1 44929U 20001R   23026.37632468  .00003895  00000-0  28016-3 0  9998
2 44929  53.0538  56.7121 0001491  87.9557 272.1603 15.06408696168272
1 44929U 20001R   23027.23883849  .00000034  00000-0  21181-4 0  9994
2 44929  53.0535  52.8387 0001465 100.0772 260.0382 15.06394882168403
1 44929U 20001R   23027.37153304  .00000939  00000-0  81932-4 0  9999
2 44929  53.0542  52.2439 0001381  94.2524 265.8623 15.06397348168422
1 44929U 20001R   23028.43308126  .00000675  00000-0  64234-4 0  9994
2 44929  53.0546  47.4777 0001424 100.9844 259.1305 15.06400395168582
1 44929U 20001R   23028.43308126  .00000675  00000-0  64234-4 0  9994
2 44929  53.0546  47.4777 0001424 100.9844 259.1305 15.06400395168582
1 44929U 20001R   23028.76481671 -.00000458  00000-0 -11843-4 0  9996
2 44929  53.0547  45.9887 0001341  94.7383 265.3759 15.06400544168638
1 44929U 20001R   23029.76002162  .00000941  00000-0  82083-4 0  9990
2 44929  53.0546  41.5207 0001415  91.8108 268.3043 15.06396033168782
1 44929U 20001R   23029.76002162  .00000941  00000-0  82083-4 0  9990
2 44929  53.0546  41.5207 0001415  91.8108 268.3043 15.06396033168782
1 44929U 20001R   23030.29079611  .00000584  00000-0  58131-4 0  9993
2 44929  53.0545  39.1379 0001417  92.1800 267.9351 15.06397716168864
1 44929U 20001R   23031.28599657  .00000848  00000-0  75795-4 0  9998
2 44929  53.0541  34.6708 0001397  89.3933 270.7216 15.06401103169014
1 44929U 20001R   23031.41868921  .00000885  00000-0  78309-4 0  9991
2 44929  53.0540  34.0749 0001409  89.0660 271.0490 15.06402214169034
